0 TITAN 3C TRANSTAGE DEB *
1 38697U 68081X   18223.01374085 +.00000057 +00000-0 +00000-0 0  9992
2 38697 003.8733 337.3752 0723144 124.6274 242.6949 01.01483532045772
0 TITAN 3C TRANSTAGE DEB *
1 38697U 68081X   18223.01374085 +.00000057 +00000-0 +00000-0 0  9992
2 38697 003.8733 337.3752 0723144 124.6274 242.6949 01.01483532045772
0 TITAN 3C TRANSTAGE DEB
1 38698U 68081Y   18223.12684524 -.00000179 +00000-0 +00000-0 0  9993
2 38698 003.1895 299.9055 0182710 276.9337 081.2386 01.04396666055848
0 TITAN 3C TRANSTAGE DEB
1 38698U 68081Y   18223.12684613 -.00000179 +00000-0 +00000-0 0  9992
2 38698 003.1895 299.9056 0182684 276.9358 081.2368 01.04396582055849
0 TITAN 3C TRANSTAGE DEB
1 38699U 68081Z   18224.49312409 +.00000054 +00000-0 +00000-0 0  9996
2 38699 005.3094 311.4660 0102751 324.3641 062.2602 01.00854748022973
0 TITAN 3C TRANSTAGE DEB
1 38703U 68081AD  18224.21192677 -.00000215 +00000-0 +00000-0 0  9995
2 38703 003.8481 295.5801 0262033 161.0200 200.1191 01.05422626017250
0 TITAN 3C TRANSTAGE DEB
1 38704U 68081AE  18223.89431826 -.00000028 +00000-0 +00000-0 0  9993
2 38704 002.7912 309.5676 0202061 288.6464 069.4766 01.02202575046710
0 TITAN 3C TRANSTAGE DEB
1 38704U 68081AE  18223.89429820 -.00000028 +00000-0 +00000-0 0  9994
2 38704 002.7913 309.5554 0201820 288.6702 069.4557 01.02202533046715
0 KANOPUS-V 1
1 38707U 12039A   18223.84123936 +.00000084 +00000-0 +72660-5 0  9990
2 38707 097.4522 141.5841 0001724 070.8176 014.7681 15.18880241335942
0 KANOPUS-V 1
1 38707U 12039A   18224.57326479 +.00000209 +00000-0 +13242-4 0  9997
2 38707 097.4524 142.3059 0001746 073.2548 052.4780 15.18881409336057
0 BKA 2
1 38708U 12039B   18224.60548994 +.00000210 +00000-0 +12957-4 0  9994
2 38708 097.4043 134.8521 0001466 089.4558 028.2229 15.19737082335992
0 BKA 2
1 38708U 12039B   18223.93752523 +.00000191 +00000-0 +12064-4 0  9991
2 38708 097.4041 134.1966 0001428 090.3177 335.2257 15.19736707335896
0 EXACTVIEW-1
1 38709U 12039C   18223.88016731 -.00000007 +00000-0 +17885-4 0  9993
2 38709 099.1378 221.0203 0011950 122.5476 237.6863 14.23970242314703
0 EXACTVIEW-1
1 38709U 12039C   18224.51255639 -.00000007 +00000-0 +17673-4 0  9991
2 38709 099.1377 221.6773 0011908 120.3596 239.8761 14.23970316314794
0 TET-1
1 38710U 12039D   18224.55177014 +.00002012 +00000-0 +40482-4 0  9998
2 38710 097.5950 204.6409 0003184 105.1985 254.9617 15.47928824339375
0 TET-1
1 38710U 12039D   18223.90532352 +.00001969 +00000-0 +39666-4 0  9998
2 38710 097.5948 203.9619 0003167 106.4473 253.7125 15.47926051339274
0 MKA-FKI 1
1 38711U 12039E   18223.91253892 -.00000008 +00000-0 +17163-4 0  9991
2 38711 099.1318 220.4216 0012412 126.3804 233.8521 14.24235065314749
0 MKA-FKI 1
1 38711U 12039E   18224.54481070 -.00000018 +00000-0 +12920-4 0  9999
2 38711 099.1318 221.0785 0012434 124.7011 235.5339 14.24235087314833
0 FENGYUN 1C DEB
1 38720U 99025ETM 18223.99146821 +.00001419 +00000-0 +67592-3 0  9998
2 38720 099.1517 293.1910 0055194 267.3398 092.1459 14.20267909423101
0 FENGYUN 1C DEB
1 38721U 99025ETN 18224.40138987 +.00000492 +00000-0 +26491-3 0  9993
2 38721 098.9513 290.6052 0080938 113.8096 247.1589 14.15718169461671
0 FENGYUN 1C DEB
1 38722U 99025ETP 18224.42082961 +.00000756 +00000-0 +28548-3 0  9994
2 38722 099.3844 087.6040 0247969 211.9888 146.6028 14.19167883322147
0 FENGYUN 1C DEB
1 38722U 99025ETP 18223.85679420 +.00000726 +00000-0 +27474-3 0  9996
2 38722 099.3845 087.0062 0247958 213.5865 144.9379 14.19166860452235
0 FENGYUN 1C DEB
1 38723U 99025ETQ 18223.75012900 +.00000787 +00000-0 +32118-3 0  9998
2 38723 099.4787 209.2647 0041577 219.0958 140.7215 14.30170787387418
0 FENGYUN 1C DEB
1 38723U 99025ETQ 18224.16989400 +.00000784 +00000-0 +31985-3 0  9990
2 38723 099.4787 209.7216 0041593 217.8303 141.9952 14.30171456257458
0 FENGYUN 1C DEB
1 38724U 99025ETR 18224.50970980 +.00001350 +00000-0 +10294-2 0  9991
2 38724 098.7422 325.9281 0160404 284.8158 073.5280 13.89368834192391
0 FENGYUN 1C DEB
1 38725U 99025ETS 18223.97813310 +.00000453 +00000-0 +24359-3 0  9996
2 38725 098.9191 289.9791 0048186 070.5002 290.1369 14.17333149386890
0 FENGYUN 1C DEB
1 38726U 99025ETT 18223.71162055 +.00000760 +00000-0 +33782-3 0  9993
2 38726 099.2057 035.2569 0089806 048.5173 312.3669 14.23971743381596
0 TIANLIAN 1-03
1 38730U 12040A   18223.08319509 +.00000049 +00000-0 +00000-0 0  9992
2 38730 000.0778 240.7411 0005920 251.9667 227.3286 01.00273059019991
0 TIANLIAN 1-03
1 38730U 12040A   18224.08044727 +.00000047 +00000-0 +00000-0 0  9998
2 38730 000.0762 240.2129 0005922 252.4410 227.3806 01.00273386019990
0 NOAA 14 DEB
1 38732U 94089D   18224.25372083 +.00000166 +00000-0 +98315-4 0  9993
2 38732 098.7295 311.3430 0018883 058.0443 302.2566 14.20076168313200
0 NOAA 14 DEB
1 38732U 94089D   18223.90142900 +.00000169 +00000-0 +99804-4 0  9994
2 38732 098.7295 310.9955 0018895 059.0167 301.2862 14.20076027313150
0 COSMOS 2481
1 38733U 12041A   18223.71429819 -.00000003 +00000-0 -91336-4 0  9990
2 38733 082.4709 062.2369 0018070 196.5826 163.4663 12.42374469273886
0 COSMOS 2481
1 38733U 12041A   18224.43907115 +.00000013 +00000-0 +21182-4 0  9991
2 38733 082.4706 061.7848 0018081 194.8789 165.1767 12.42374678273976
0 GONETS M 03
1 38734U 12041B   18224.44567270 +.00000032 +00000-0 +15717-3 0  9994
2 38734 082.4715 059.5247 0015572 211.0868 148.9298 12.44798406274179
0 GONETS M 03
1 38734U 12041B   18223.72231024 +.00000018 +00000-0 +54325-4 0  9992
2 38734 082.4715 059.9778 0015581 212.7591 147.2527 12.44798206274088
0 YUBELEINY 2
1 38735U 12041C   18223.91242114 +.00000025 +00000-0 +11245-3 0  9997
2 38735 082.4735 061.8693 0016597 190.0237 170.0513 12.42577217273928
0 YUBELEINY 2
1 38735U 12041C   18224.55655896 +.00000017 +00000-0 +50229-4 0  9990
2 38735 082.4735 061.4674 0016621 188.5961 171.4836 12.42577233274008
0 GONETS M 04
1 38736U 12041D   18224.44083426 +.00000033 +00000-0 +16133-3 0  9996
2 38736 082.4766 061.1437 0024146 190.4778 169.5803 12.43803459274102
0 GONETS M 04
1 38736U 12041D   18223.71689327 +.00000008 +00000-0 -13726-4 0  9996
2 38736 082.4768 061.5971 0024088 192.1327 167.9176 12.43803129274014
0 BREEZE-KM R/B
1 38737U 12041E   18223.73431055 +.00000011 +00000-0 -67846-5 0  9999
2 38737 082.4800 317.8031 0226250 137.6535 224.2282 12.81807770282557
0 BREEZE-KM R/B
1 38737U 12041E   18224.35875686 +.00000011 +00000-0 -85209-5 0  9993
2 38737 082.4799 317.3844 0226266 136.1951 225.7348 12.81807772282634
0 INTELSAT 20
1 38740U 12043A   18223.91991381 -.00000050 +00000-0 +00000-0 0  9995
2 38740 000.0146 121.5559 0002015 067.0134 171.4121 01.00272593022024
0 HYLAS 2
1 38741U 12043B   18224.02379829 +.00000129 +00000-0 +00000-0 0  9992
2 38741 000.0078 269.1025 0001375 228.0553 222.8376 01.00270583022039
0 HYLAS 2
1 38741U 12043B   18223.02651725 +.00000131 +00000-0 +00000-0 0  9992
2 38741 000.0104 275.8042 0001365 222.5584 221.6344 01.00270039022021
0 ARIANE 5 R/B
1 38742U 12043C   18223.71896447 +.00004522 +00000-0 +73766-3 0  9991
2 38742 005.4617 231.4130 7189697 247.4622 025.6116 02.40899762051764
0 ARIANE 5 R/B
1 38742U 12043C   18224.13379803 +.00004509 +00000-0 +73860-3 0  9990
2 38742 005.4606 231.2137 7189520 247.8456 025.3714 02.40904242051784
0 ARIANE 5 DEB (SYLDA)
1 38743U 12043D   18224.32953747 +.00252042 +71076-6 +55967-2 0  9998
2 38743 005.7447 188.4472 5992837 326.4944 006.9291 04.13922461068578
0 ARIANE 5 DEB (SYLDA)
1 38743U 12043D   18223.60462902 +.00234260 +73743-6 +52053-2 0  9994
2 38743 005.7447 189.1011 5995231 325.2013 007.2150 04.13554975068546
0 TELKOM 3
1 38744U 12044A   18223.90059388 +.00070802 +68097-5 +75671-3 0  9996
2 38744 049.8693 264.2547 1108778 353.9197 004.9113 13.50082190159198
0 TELKOM 3
1 38744U 12044A   18224.56684572 +.00067195 +67795-5 +71984-3 0  9996
2 38744 049.8692 261.7071 1108259 356.0445 003.2200 13.50185084159280
0 EXPRESS MD2
1 38745U 12044B   18224.43801232 +.00007232 +32462-5 +21539-3 0  9997
2 38745 049.8903 035.9237 2249129 063.7641 317.6587 10.94282223233140
0 EXPRESS MD2
1 38745U 12044B   18223.88992929 +.00006256 +32393-5 +19012-3 0  9990
2 38745 049.8902 037.3124 2249229 062.6074 318.5410 10.94272890233086
0 BREEZE-M R/B
1 38746U 12044C   18224.39278772 +.00002921 +00000-0 +18511-3 0  9994
2 38746 049.6985 308.3805 2420426 248.2945 084.4265 10.47307348215961
0 BREEZE-M DEB
1 38747U 12044D   18224.56037226 +.00200871 +15065-4 +11612-2 0  9990
2 38747 049.7945 102.8137 0615218 083.3810 283.6725 14.67749299268554
0 BREEZE-M DEB
1 38747U 12044D   18223.87947568 +.00228958 +16945-4 +13244-2 0  9999
2 38747 049.7947 105.9270 0616418 080.7670 286.2410 14.67450823268457
0 INTELSAT 21
1 38749U 12045A   18223.27313381 -.00000308 +00000-0 +00000-0 0  9999
2 38749 000.0181 088.4142 0001773 051.8085 219.7904 01.00270130021802
0 INTELSAT 21
1 38749U 12045A   18224.27040367 -.00000310 +00000-0 +00000-0 0  9994
2 38749 000.0195 092.4158 0001815 048.0488 219.5487 01.00269809021817
0 BLOCK DM-SL R/B
1 38750U 12045B   18224.42662052 +.00000735 +00000-0 +57769-3 0  9991
2 38750 000.4530 346.2616 7187914 192.4383 185.7084 02.38002168051225
0 BLOCK DM-SL R/B
1 38750U 12045B   18223.58809440 +.00000412 +00000-0 +42334-3 0  9995
2 38750 000.4538 346.5684 7187827 191.7664 187.2626 02.38000298051207
0 RBSP A
1 38752U 12046A   18223.47720788 -.00000111 +00000-0 +45427-3 0  9996
2 38752 010.1336 357.6213 6827567 154.5707 267.2366 02.68157167058152
0 RBSP A
1 38752U 12046A   18224.22118975 -.00000080 +00000-0 +62689-3 0  9993
2 38752 010.1329 357.2804 6827613 155.2413 265.4445 02.68157261058175
